CCSDS_OMM_VERS = 2.0
CREATION_DATE  = 
ORIGINATOR     = 

OBJECT_NAME    = SOYUZ-MS 28
OBJECT_ID      = 2025-275A
CENTER_NAME    = EARTH
REF_FRAME      = TEME
TIME_SYSTEM    = UTC
MEAN_ELEMENT_THEORY = SGP/SGP4

EPOCH          = 2025-12-22T15:58:44.561856
MEAN_MOTION    = 15.49732869
ECCENTRICITY   = .00031542
INCLINATION    = 51.6326
RA_OF_ASC_NODE = 93.3232
ARG_OF_PERICENTER = 286.8846
MEAN_ANOMALY   = 73.1797

EPHEMERIS_TYPE = 0
CLASSIFICATION_TYPE = U
NORAD_CAT_ID   = 66664
ELEMENT_SET_NO = 999
REV_AT_EPOCH   = 128
BSTAR          = .22188304E-3
MEAN_MOTION_DOT = .1211E-3
MEAN_MOTION_DDOT = 0

CCSDS_OMM_VERS = 2.0
CREATION_DATE  = 
ORIGINATOR     = 

OBJECT_NAME    = 1998-067XS
OBJECT_ID      = 1998-067XS
CENTER_NAME    = EARTH
REF_FRAME      = TEME
TIME_SYSTEM    = UTC
MEAN_ELEMENT_THEORY = SGP/SGP4

EPOCH          = 2025-12-22T11:01:48.942336
MEAN_MOTION    = 15.51071617
ECCENTRICITY   = .00028954
INCLINATION    = 51.6319
RA_OF_ASC_NODE = 94.1970
ARG_OF_PERICENTER = 250.8689
MEAN_ANOMALY   = 109.1987

EPHEMERIS_TYPE = 0
CLASSIFICATION_TYPE = U
NORAD_CAT_ID   = 66906
ELEMENT_SET_NO = 999
REV_AT_EPOCH   = 312
BSTAR          = .51361561E-3
MEAN_MOTION_DOT = .30106E-3
MEAN_MOTION_DDOT = 0

CCSDS_OMM_VERS = 2.0
CREATION_DATE  = 
ORIGINATOR     = 

OBJECT_NAME    = 1998-067XT
OBJECT_ID      = 1998-067XT
CENTER_NAME    = EARTH
REF_FRAME      = TEME
TIME_SYSTEM    = UTC
MEAN_ELEMENT_THEORY = SGP/SGP4

EPOCH          = 2025-12-22T07:41:32.890848
MEAN_MOTION    = 15.52583192
ECCENTRICITY   = .00038425
INCLINATION    = 51.6311
RA_OF_ASC_NODE = 94.7687
ARG_OF_PERICENTER = 286.1212
MEAN_ANOMALY   = 73.9355

EPHEMERIS_TYPE = 0
CLASSIFICATION_TYPE = U
NORAD_CAT_ID   = 66907
ELEMENT_SET_NO = 999
REV_AT_EPOCH   = 310
BSTAR          = .11084243E-2
MEAN_MOTION_DOT = .69527E-3
MEAN_MOTION_DDOT = 0

CCSDS_OMM_VERS = 2.0
CREATION_DATE  = 
ORIGINATOR     = 

OBJECT_NAME    = 1998-067XU
OBJECT_ID      = 1998-067XU
CENTER_NAME    = EARTH
REF_FRAME      = TEME
TIME_SYSTEM    = UTC
MEAN_ELEMENT_THEORY = SGP/SGP4

EPOCH          = 2025-12-22T12:18:16.541280
MEAN_MOTION    = 15.52707663
ECCENTRICITY   = .00038713
INCLINATION    = 51.6310
RA_OF_ASC_NODE = 93.8007
ARG_OF_PERICENTER = 283.9304
MEAN_ANOMALY   = 76.1255

EPHEMERIS_TYPE = 0
CLASSIFICATION_TYPE = U
NORAD_CAT_ID   = 66908
ELEMENT_SET_NO = 999
REV_AT_EPOCH   = 313
BSTAR          = .10107547E-2
MEAN_MOTION_DOT = .63598E-3
MEAN_MOTION_DDOT = 0

CCSDS_OMM_VERS = 2.0
CREATION_DATE  = 
ORIGINATOR     = 

OBJECT_NAME    = SILVERSAT
OBJECT_ID      = 1998-067XV
CENTER_NAME    = EARTH
REF_FRAME      = TEME
TIME_SYSTEM    = UTC
MEAN_ELEMENT_THEORY = SGP/SGP4

EPOCH          = 2025-12-22T12:16:28.422912
MEAN_MOTION    = 15.52898333
ECCENTRICITY   = .0003866
INCLINATION    = 51.6306
RA_OF_ASC_NODE = 93.7929
ARG_OF_PERICENTER = 288.2093
MEAN_ANOMALY   = 71.8476

EPHEMERIS_TYPE = 0
CLASSIFICATION_TYPE = U
NORAD_CAT_ID   = 66909
ELEMENT_SET_NO = 999
REV_AT_EPOCH   = 313
BSTAR          = .11325313E-2
MEAN_MOTION_DOT = .71888E-3
MEAN_MOTION_DDOT = 0

CCSDS_OMM_VERS = 2.0
CREATION_DATE  = 
ORIGINATOR     = 

OBJECT_NAME    = 1998-067XW
OBJECT_ID      = 1998-067XW
CENTER_NAME    = EARTH
REF_FRAME      = TEME
TIME_SYSTEM    = UTC
MEAN_ELEMENT_THEORY = SGP/SGP4

EPOCH          = 2025-12-22T12:13:56.337312
MEAN_MOTION    = 15.52855241
ECCENTRICITY   = .00039884
INCLINATION    = 51.6304
RA_OF_ASC_NODE = 93.7808
ARG_OF_PERICENTER = 260.6768
MEAN_ANOMALY   = 99.3771

EPHEMERIS_TYPE = 0
CLASSIFICATION_TYPE = U
NORAD_CAT_ID   = 66910
ELEMENT_SET_NO = 999
REV_AT_EPOCH   = 313
BSTAR          = .10313397E-2
MEAN_MOTION_DOT = .65266E-3
MEAN_MOTION_DDOT = 0

CCSDS_OMM_VERS = 2.0
CREATION_DATE  = 
ORIGINATOR     = 

OBJECT_NAME    = 1998-067XX
OBJECT_ID      = 1998-067XX
CENTER_NAME    = EARTH
REF_FRAME      = TEME
TIME_SYSTEM    = UTC
MEAN_ELEMENT_THEORY = SGP/SGP4

EPOCH          = 2025-12-22T12:09:35.951904
MEAN_MOTION    = 15.53307333
ECCENTRICITY   = .00037259
INCLINATION    = 51.6305
RA_OF_ASC_NODE = 93.7603
ARG_OF_PERICENTER = 265.4438
MEAN_ANOMALY   = 94.6127

EPHEMERIS_TYPE = 0
CLASSIFICATION_TYPE = U
NORAD_CAT_ID   = 66911
ELEMENT_SET_NO = 999
REV_AT_EPOCH   = 312
BSTAR          = .11547051E-2
MEAN_MOTION_DOT = .74426E-3
MEAN_MOTION_DDOT = 0

CCSDS_OMM_VERS = 2.0
CREATION_DATE  = 
ORIGINATOR     = 

OBJECT_NAME    = 1998-067XY
OBJECT_ID      = 1998-067XY
CENTER_NAME    = EARTH
REF_FRAME      = TEME
TIME_SYSTEM    = UTC
MEAN_ELEMENT_THEORY = SGP/SGP4

EPOCH          = 2025-12-22T13:57:42.061248
MEAN_MOTION    = 15.52056622
ECCENTRICITY   = .00039127
INCLINATION    = 51.6324
RA_OF_ASC_NODE = 93.5129
ARG_OF_PERICENTER = 278.0711
MEAN_ANOMALY   = 81.9835

EPHEMERIS_TYPE = 0
CLASSIFICATION_TYPE = U
NORAD_CAT_ID   = 66912
ELEMENT_SET_NO = 999
REV_AT_EPOCH   = 313
BSTAR          = .86867978E-3
MEAN_MOTION_DOT = .5325E-3
MEAN_MOTION_DDOT = 0

